OBJECT_NAME,OBJECT_ID,EPOCH,MEAN_MOTION,ECCENTRICITY,INCLINATION,RA_OF_ASC_NODE,ARG_OF_PERICENTER,MEAN_ANOMALY,EPHEMERIS_TYPE,CLASSIFICATION_TYPE,NORAD_CAT_ID,ELEMENT_SET_NO,REV_AT_EPOCH,BSTAR,MEAN_MOTION_DOT,MEAN_MOTION_DDOT
ONEWEB-0225,2021-045AJ,2026-07-10T04:19:13.272672,13.15548055,.00020981,87.8990,254.6186,113.8078,246.3272,0,U,48799,999,24744,.22575108E-3,.98E-6,0
ONEWEB-0215,2021-045AK,2026-07-10T03:35:51.625248,13.15549141,.0002261,87.9002,254.6084,116.6726,243.4636,0,U,48800,999,24731,.71492033E-4,.4E-6,0
ONEWEB-0216,2021-045AL,2026-07-11T12:40:57.812160,13.15548316,.0002034,87.8994,254.3472,95.6901,264.4462,0,U,48801,999,24750,.21652E-3,.94E-6,0
ONEWEB-0239,2021-045AM,2026-07-11T03:40:11.913024,13.15547513,.0002618,87.8981,254.4265,113.9536,246.1868,0,U,48802,999,24749,.21031E-3,.92E-6,0
ONEWEB-0249,2021-060A,2026-07-11T12:34:24.000960,13.16593787,.0002139,87.9076,223.9433,92.9638,267.1738,0,U,48967,999,24281,-.41372E-3,-.145E-5,0
ONEWEB-0250,2021-060B,2026-07-11T12:47:03.111360,13.25834940,.0003162,87.9087,221.6191,91.2914,268.8584,0,U,48968,999,24344,.11067E-4,.18E-6,0
ONEWEB-0252,2021-060D,2026-07-11T11:29:27.683232,13.16594384,.0001876,87.9079,223.9454,95.1207,265.0138,0,U,48970,999,24285,-.18324E-3,-.57E-6,0
ONEWEB-0253,2021-060E,2026-07-11T11:13:30.252000,13.16594579,.0002315,87.9086,223.9532,94.9745,265.1650,0,U,48971,999,24278,.5496E-5,.15E-6,0
ONEWEB-0254,2021-060F,2026-07-11T11:27:11.148768,13.16594116,.000225,87.9072,223.9466,103.4142,256.7239,0,U,48972,999,24278,.18415E-3,.83E-6,0
ONEWEB-0255,2021-060G,2026-07-11T12:21:54.143136,13.16593918,.0002093,87.9076,223.9476,98.6037,261.5331,0,U,48973,999,24286,.51298E-4,.32E-6,0
ONEWEB-0256,2021-060H,2026-07-11T11:10:03.640224,13.16594088,.0002121,87.9068,223.9619,88.5223,271.6151,0,U,48974,999,24282,-.2263E-2,-.852E-5,0
ONEWEB-0257,2021-060J,2026-07-11T11:56:49.265088,13.16593837,.0002077,87.9089,223.9436,97.8847,262.2519,0,U,48975,999,24278,-.73457E-4,-.15E-6,0
ONEWEB-0258,2021-060K,2026-07-11T11:59:06.196128,13.16593840,.0002154,87.9083,223.9546,94.9289,265.2088,0,U,48976,999,24279,-.14509E-3,-.43E-6,0
ONEWEB-0259,2021-060L,2026-07-11T11:49:58.948032,13.16593979,.0002341,87.9094,223.9555,97.0958,263.0439,0,U,48977,999,24282,.48931E-4,.32E-6,0
ONEWEB-0260,2021-060M,2026-07-11T11:37:25.362048,13.16595490,.0001617,87.9066,223.9561,90.4318,269.6998,0,U,48978,999,24280,-.20575E-4,.5E-7,0
ONEWEB-0261,2021-060N,2026-07-11T12:43:34.055328,13.16593257,.0002082,87.9073,223.9494,106.3093,253.8267,0,U,48979,999,24286,.20131E-3,.9E-6,0
ONEWEB-0262,2021-060P,2026-07-11T12:15:03.687840,13.16593326,.0002336,87.9076,223.9390,98.2457,261.8938,0,U,48980,999,24282,-.13778E-3,-.4E-6,0
ONEWEB-0263,2021-060Q,2026-07-11T11:11:13.288992,13.16593794,.0002159,87.9085,223.9589,105.6513,254.4857,0,U,48981,999,24278,.16418E-3,.76E-6,0
ONEWEB-0264,2021-060R,2026-07-11T12:04:46.484256,13.16592329,.00019,87.9069,223.9545,98.7882,261.3464,0,U,48982,999,24279,-.18549E-3,-.58E-6,0
ONEWEB-0266,2021-060T,2026-07-11T12:35:34.252800,13.16595098,.0002149,87.9080,223.9405,89.5175,270.6202,0,U,48984,999,24278,.11414E-3,.56E-6,0
ONEWEB-0267,2021-060U,2026-07-11T11:02:06.306144,13.16594143,.0001911,87.9073,223.9513,97.1613,262.9735,0,U,48985,999,24278,.28823E-3,.123E-5,0
ONEWEB-0268,2021-060V,2026-07-11T12:05:56.386176,13.16593863,.0001954,87.9082,223.9515,92.1365,267.9990,0,U,48986,999,24305,-.7351E-4,-.15E-6,0
ONEWEB-0269,2021-060W,2026-07-11T11:38:34.844064,13.16594482,.0002163,87.9102,223.9580,89.1025,271.0354,0,U,48987,999,24282,.15205E-3,.71E-6,0
ONEWEB-0270,2021-060X,2026-07-11T12:03:39.839616,13.16593795,.0002276,87.9079,223.9539,102.5442,257.5943,0,U,48988,999,24286,-.14662E-3,-.43E-6,0
ONEWEB-0271,2021-060Y,2026-07-11T11:45:25.540416,13.16593650,.000207,87.9075,223.9447,100.7198,259.4166,0,U,48989,999,24286,-.12966E-3,-.37E-6,0
ONEWEB-0272,2021-060Z,2026-07-11T12:17:20.438304,13.16595198,.0001778,87.9070,223.9520,96.0495,264.0838,0,U,48990,999,24281,.35838E-4,.27E-6,0
ONEWEB-0273,2021-060AA,2026-07-11T10:59:49.210080,13.16593860,.0002115,87.9081,223.9629,100.4553,259.6816,0,U,48991,999,24278,.11563E-3,.57E-6,0
ONEWEB-0274,2021-060AB,2026-07-11T11:36:17.324640,13.16595353,.0001757,87.9071,223.9585,93.4056,266.7276,0,U,48992,999,24282,.7116E-4,.4E-6,0
ONEWEB-0275,2021-060AC,2026-07-11T11:20:19.927104,13.16595703,.0001986,87.9080,223.9525,95.2205,264.9153,0,U,48993,999,24275,.14459E-3,.68E-6,0
ONEWEB-0276,2021-060AD,2026-07-11T12:08:13.409664,13.16593552,.0001914,87.9076,223.9450,94.6127,265.5223,0,U,48994,999,24277,-.12353E-3,-.34E-6,0
ONEWEB-0277,2021-060AE,2026-07-11T12:26:28.322304,13.16594824,.0002088,87.9069,223.9496,99.2685,260.8682,0,U,48995,999,24276,.4772E-4,.31E-6,0
