ONEWEB-0225             
1 48799U 21045AJ  26191.18001473  .00000098  00000+0  22575-3 0  9992
2 48799  87.8990 254.6186 0002098 113.8078 246.3272 13.15548055247443
ONEWEB-0215             
1 48800U 21045AK  26191.14990307  .00000040  00000+0  71492-4 0  9994
2 48800  87.9002 254.6084 0002261 116.6726 243.4636 13.15549141247316
ONEWEB-0216             
1 48801U 21045AL  26192.52844690  .00000094  00000+0  21652-3 0  9992
2 48801  87.8994 254.3472 0002034  95.6901 264.4462 13.15548316247507
ONEWEB-0239             
1 48802U 21045AM  26192.15291566  .00000092  00000+0  21031-3 0  9999
2 48802  87.8981 254.4265 0002618 113.9536 246.1868 13.15547513247494
ONEWEB-0249             
1 48967U 21060A   26192.52388890 -.00000145  00000+0 -41372-3 0  9997
2 48967  87.9076 223.9433 0002139  92.9638 267.1738 13.16593787242812
ONEWEB-0250             
1 48968U 21060B   26192.53267490  .00000018  00000+0  11067-4 0  9997
2 48968  87.9087 221.6191 0003162  91.2914 268.8584 13.25834940243443
ONEWEB-0252             
1 48970U 21060D   26192.47879263 -.00000057  00000+0 -18324-3 0  9997
2 48970  87.9079 223.9454 0001876  95.1207 265.0138 13.16594384242855
ONEWEB-0253             
1 48971U 21060E   26192.46771125  .00000015  00000+0  54960-5 0  9995
2 48971  87.9086 223.9532 0002315  94.9745 265.1650 13.16594579242782
ONEWEB-0254             
1 48972U 21060F   26192.47721237  .00000083  00000+0  18415-3 0  9994
2 48972  87.9072 223.9466 0002250 103.4142 256.7239 13.16594116242785
ONEWEB-0255             
1 48973U 21060G   26192.51520999  .00000032  00000+0  51298-4 0  9993
2 48973  87.9076 223.9476 0002093  98.6037 261.5331 13.16593918242869
ONEWEB-0256             
1 48974U 21060H   26192.46531991 -.00000852  00000+0 -22630-2 0  9990
2 48974  87.9068 223.9619 0002121  88.5223 271.6151 13.16594088242824
ONEWEB-0257             
1 48975U 21060J   26192.49779242 -.00000015  00000+0 -73457-4 0  9993
2 48975  87.9089 223.9436 0002077  97.8847 262.2519 13.16593837242780
ONEWEB-0258             
1 48976U 21060K   26192.49937727 -.00000043  00000+0 -14509-3 0  9991
2 48976  87.9083 223.9546 0002154  94.9289 265.2088 13.16593840242790
ONEWEB-0259             
1 48977U 21060L   26192.49304338  .00000032  00000+0  48931-4 0  9991
2 48977  87.9094 223.9555 0002341  97.0958 263.0439 13.16593979242821
ONEWEB-0260             
1 48978U 21060M   26192.48432132  .00000005  00000+0 -20575-4 0  9990
2 48978  87.9066 223.9561 0001617  90.4318 269.6998 13.16595490242800
ONEWEB-0261             
1 48979U 21060N   26192.53025527  .00000090  00000+0  20131-3 0  9993
2 48979  87.9073 223.9494 0002082 106.3093 253.8267 13.16593257242867
ONEWEB-0262             
1 48980U 21060P   26192.51045935 -.00000040  00000+0 -13778-3 0  9994
2 48980  87.9076 223.9390 0002336  98.2457 261.8938 13.16593326242829
ONEWEB-0263             
1 48981U 21060Q   26192.46612603  .00000076  00000+0  16418-3 0  9992
2 48981  87.9085 223.9589 0002159 105.6513 254.4857 13.16593794242781
ONEWEB-0264             
1 48982U 21060R   26192.50331579 -.00000058  00000+0 -18549-3 0  9997
2 48982  87.9069 223.9545 0001900  98.7882 261.3464 13.16592329242795
ONEWEB-0266             
1 48984U 21060T   26192.52470200  .00000056  00000+0  11414-3 0  9996
2 48984  87.9080 223.9405 0002149  89.5175 270.6202 13.16595098242782
ONEWEB-0267             
1 48985U 21060U   26192.45979521  .00000123  00000+0  28823-3 0  9996
2 48985  87.9073 223.9513 0001911  97.1613 262.9735 13.16594143242788
ONEWEB-0268             
1 48986U 21060V   26192.50412484 -.00000015  00000+0 -73510-4 0  9999
2 48986  87.9082 223.9515 0001954  92.1365 267.9990 13.16593863243054
ONEWEB-0269             
1 48987U 21060W   26192.48512551  .00000071  00000+0  15205-3 0  9999
2 48987  87.9102 223.9580 0002163  89.1025 271.0354 13.16594482242824
ONEWEB-0270             
1 48988U 21060X   26192.50254444 -.00000043  00000+0 -14662-3 0  9994
2 48988  87.9079 223.9539 0002276 102.5442 257.5943 13.16593795242863
ONEWEB-0271             
1 48989U 21060Y   26192.48987894 -.00000037  00000+0 -12966-3 0  9992
2 48989  87.9075 223.9447 0002070 100.7198 259.4166 13.16593650242866
ONEWEB-0272             
1 48990U 21060Z   26192.51204211  .00000027  00000+0  35838-4 0  9994
2 48990  87.9070 223.9520 0001778  96.0495 264.0838 13.16595198242818
ONEWEB-0273             
1 48991U 21060AA  26192.45820845  .00000057  00000+0  11563-3 0  9996
2 48991  87.9081 223.9629 0002115 100.4553 259.6816 13.16593860242788
ONEWEB-0274             
1 48992U 21060AB  26192.48353385  .00000040  00000+0  71160-4 0  9992
2 48992  87.9071 223.9585 0001757  93.4056 266.7276 13.16595353242822
ONEWEB-0275             
1 48993U 21060AC  26192.47245286  .00000068  00000+0  14459-3 0  9999
2 48993  87.9080 223.9525 0001986  95.2205 264.9153 13.16595703242752
ONEWEB-0276             
1 48994U 21060AD  26192.50571076 -.00000034  00000+0 -12353-3 0  9999
2 48994  87.9076 223.9450 0001914  94.6127 265.5223 13.16593552242779
ONEWEB-0277             
1 48995U 21060AE  26192.51838336  .00000031  00000+0  47720-4 0  9998
2 48995  87.9069 223.9496 0002088  99.2685 260.8682 13.16594824242764
